SL-14 R/B               
1 21423U 91042B   26045.05600420  .00000431  00000+0  51520-4 0  9996
2 21423  82.4898 242.3490 0016139 323.1198  36.8904 14.81805917849571
ERS-1                   
1 21574U 91050A   26045.06344947  .00000373  00000+0  13405-3 0  9996
2 21574  98.7893  62.7037 0030879 272.4724  87.2927 14.39430127812331
ARIANE 40 R/B           
1 21610U 91050F   26045.10123605  .00000317  00000+0  10742-3 0  9997
2 21610  98.2063  98.2170 0004092 132.9564 227.1971 14.42875942815595
INTERCOSMOS 25          
1 21819U 91086A   26045.21041185  .00001524  00000+0  29503-3 0  9997
2 21819  82.6086 324.1962 1486893 167.5124 196.7510 12.11935204493840
SL-8 R/B                
1 21876U 92008B   26045.17192290  .00000043  00000+0  28324-4 0  9990
2 21876  82.9256 285.2750 0034106 198.3745 274.3752 13.75969788706183
SL-8 R/B                
1 21938U 92020B   26045.27060942  .00000102  00000+0  89919-4 0  9995
2 21938  82.9337 171.1438 0028938   5.9124  57.4178 13.75546253697918
USA 81                  
1 21949U 92023A   26045.25639614  .00000208  00000+0  69498-4 0  9993
2 21949  85.0118 144.9537 0002747  98.7228 261.4276 14.32359464 91435
COSMOS 2219             
1 22219U 92076A   26045.24806463  .00000118  00000+0  86855-4 0  9995
2 22219  71.0579  67.0743 0020088 238.8517 121.0635 14.14077258715062
SL-16 R/B               
1 22220U 92076B   26044.99473251 -.00000168  00000+0 -59967-4 0  9994
2 22220  70.9977 238.2865 0011248 139.1653  22.4420 14.16855597718479
COSMOS 2221             
1 22236U 92080A   26045.22938390  .00001963  00000+0  17210-3 0  9999
2 22236  82.5053 301.5507 0012743 273.0165  86.9598 14.96108146777288
SL-16 R/B               
1 22285U 92093B   26045.27700873  .00000240  00000+0  14743-3 0  9990
2 22285  71.0202  53.4156 0005335 318.9162  41.1559 14.15442383709841
COSMOS 2228             
1 22286U 92094A   26045.26110299  .00002121  00000+0  18116-3 0  9996
2 22286  82.5150 259.7462 0018674  24.9785 335.2337 14.97079511772555
