CCSDS_OMM_VERS = 2.0
CREATION_DATE  = 
ORIGINATOR     = 

OBJECT_NAME    = SL-14 R/B
OBJECT_ID      = 1991-042B
CENTER_NAME    = EARTH
REF_FRAME      = TEME
TIME_SYSTEM    = UTC
MEAN_ELEMENT_THEORY = SGP/SGP4

EPOCH          = 2026-02-14T01:20:38.762880
MEAN_MOTION    = 14.81805917
ECCENTRICITY   = .0016139
INCLINATION    = 82.4898
RA_OF_ASC_NODE = 242.3490
ARG_OF_PERICENTER = 323.1198
MEAN_ANOMALY   = 36.8904

EPHEMERIS_TYPE = 0
CLASSIFICATION_TYPE = U
NORAD_CAT_ID   = 21423
ELEMENT_SET_NO = 999
REV_AT_EPOCH   = 84957
BSTAR          = .51519511E-4
MEAN_MOTION_DOT = .431E-5
MEAN_MOTION_DDOT = 0

CCSDS_OMM_VERS = 2.0
CREATION_DATE  = 
ORIGINATOR     = 

OBJECT_NAME    = ERS-1
OBJECT_ID      = 1991-050A
CENTER_NAME    = EARTH
REF_FRAME      = TEME
TIME_SYSTEM    = UTC
MEAN_ELEMENT_THEORY = SGP/SGP4

EPOCH          = 2026-02-14T01:31:22.034208
MEAN_MOTION    = 14.39430127
ECCENTRICITY   = .00308798
INCLINATION    = 98.7893
RA_OF_ASC_NODE = 62.7037
ARG_OF_PERICENTER = 272.4724
MEAN_ANOMALY   = 87.2927

EPHEMERIS_TYPE = 0
CLASSIFICATION_TYPE = U
NORAD_CAT_ID   = 21574
ELEMENT_SET_NO = 999
REV_AT_EPOCH   = 81233
BSTAR          = .13404876E-3
MEAN_MOTION_DOT = .373E-5
MEAN_MOTION_DDOT = 0

CCSDS_OMM_VERS = 2.0
CREATION_DATE  = 
ORIGINATOR     = 

OBJECT_NAME    = ARIANE 40 R/B
OBJECT_ID      = 1991-050F
CENTER_NAME    = EARTH
REF_FRAME      = TEME
TIME_SYSTEM    = UTC
MEAN_ELEMENT_THEORY = SGP/SGP4

EPOCH          = 2026-02-14T02:25:46.794720
MEAN_MOTION    = 14.42875942
ECCENTRICITY   = .00040929
INCLINATION    = 98.2063
RA_OF_ASC_NODE = 98.2170
ARG_OF_PERICENTER = 132.9564
MEAN_ANOMALY   = 227.1971

EPHEMERIS_TYPE = 0
CLASSIFICATION_TYPE = U
NORAD_CAT_ID   = 21610
ELEMENT_SET_NO = 999
REV_AT_EPOCH   = 81559
BSTAR          = .10741824E-3
MEAN_MOTION_DOT = .317E-5
MEAN_MOTION_DDOT = 0

CCSDS_OMM_VERS = 2.0
CREATION_DATE  = 
ORIGINATOR     = 

OBJECT_NAME    = INTERCOSMOS 25
OBJECT_ID      = 1991-086A
CENTER_NAME    = EARTH
REF_FRAME      = TEME
TIME_SYSTEM    = UTC
MEAN_ELEMENT_THEORY = SGP/SGP4

EPOCH          = 2026-02-14T05:02:59.583840
MEAN_MOTION    = 12.11935204
ECCENTRICITY   = .14868936
INCLINATION    = 82.6086
RA_OF_ASC_NODE = 324.1962
ARG_OF_PERICENTER = 167.5124
MEAN_ANOMALY   = 196.7510

EPHEMERIS_TYPE = 0
CLASSIFICATION_TYPE = U
NORAD_CAT_ID   = 21819
ELEMENT_SET_NO = 999
REV_AT_EPOCH   = 49384
BSTAR          = .2950308E-3
MEAN_MOTION_DOT = .1524E-4
MEAN_MOTION_DDOT = 0

CCSDS_OMM_VERS = 2.0
CREATION_DATE  = 
ORIGINATOR     = 

OBJECT_NAME    = SL-8 R/B
OBJECT_ID      = 1992-008B
CENTER_NAME    = EARTH
REF_FRAME      = TEME
TIME_SYSTEM    = UTC
MEAN_ELEMENT_THEORY = SGP/SGP4

EPOCH          = 2026-02-14T04:07:34.138560
MEAN_MOTION    = 13.75969788
ECCENTRICITY   = .00341069
INCLINATION    = 82.9256
RA_OF_ASC_NODE = 285.2750
ARG_OF_PERICENTER = 198.3745
MEAN_ANOMALY   = 274.3752

EPHEMERIS_TYPE = 0
CLASSIFICATION_TYPE = U
NORAD_CAT_ID   = 21876
ELEMENT_SET_NO = 999
REV_AT_EPOCH   = 70618
BSTAR          = .28323515E-4
MEAN_MOTION_DOT = .43E-6
MEAN_MOTION_DDOT = 0

CCSDS_OMM_VERS = 2.0
CREATION_DATE  = 
ORIGINATOR     = 

OBJECT_NAME    = SL-8 R/B
OBJECT_ID      = 1992-020B
CENTER_NAME    = EARTH
REF_FRAME      = TEME
TIME_SYSTEM    = UTC
MEAN_ELEMENT_THEORY = SGP/SGP4

EPOCH          = 2026-02-14T06:29:40.653888
MEAN_MOTION    = 13.75546253
ECCENTRICITY   = .00289384
INCLINATION    = 82.9337
RA_OF_ASC_NODE = 171.1438
ARG_OF_PERICENTER = 5.9124
MEAN_ANOMALY   = 57.4178

EPHEMERIS_TYPE = 0
CLASSIFICATION_TYPE = U
NORAD_CAT_ID   = 21938
ELEMENT_SET_NO = 999
REV_AT_EPOCH   = 69791
BSTAR          = .89919282E-4
MEAN_MOTION_DOT = .102E-5
MEAN_MOTION_DDOT = 0

CCSDS_OMM_VERS = 2.0
CREATION_DATE  = 
ORIGINATOR     = 

OBJECT_NAME    = USA 81
OBJECT_ID      = 1992-023A
CENTER_NAME    = EARTH
REF_FRAME      = TEME
TIME_SYSTEM    = UTC
MEAN_ELEMENT_THEORY = SGP/SGP4

EPOCH          = 2026-02-14T06:09:12.626496
MEAN_MOTION    = 14.32359464
ECCENTRICITY   = .00027473
INCLINATION    = 85.0118
RA_OF_ASC_NODE = 144.9537
ARG_OF_PERICENTER = 98.7228
MEAN_ANOMALY   = 261.4276

EPHEMERIS_TYPE = 0
CLASSIFICATION_TYPE = U
NORAD_CAT_ID   = 21949
ELEMENT_SET_NO = 999
REV_AT_EPOCH   = 9143
BSTAR          = .69497626E-4
MEAN_MOTION_DOT = .208E-5
MEAN_MOTION_DDOT = 0

CCSDS_OMM_VERS = 2.0
CREATION_DATE  = 
ORIGINATOR     = 

OBJECT_NAME    = COSMOS 2219
OBJECT_ID      = 1992-076A
CENTER_NAME    = EARTH
REF_FRAME      = TEME
TIME_SYSTEM    = UTC
MEAN_ELEMENT_THEORY = SGP/SGP4

EPOCH          = 2026-02-14T05:57:12.784032
MEAN_MOTION    = 14.14077258
ECCENTRICITY   = .00200888
INCLINATION    = 71.0579
RA_OF_ASC_NODE = 67.0743
ARG_OF_PERICENTER = 238.8517
MEAN_ANOMALY   = 121.0635

EPHEMERIS_TYPE = 0
CLASSIFICATION_TYPE = U
NORAD_CAT_ID   = 22219
ELEMENT_SET_NO = 999
REV_AT_EPOCH   = 71506
BSTAR          = .86854761E-4
MEAN_MOTION_DOT = .118E-5
MEAN_MOTION_DDOT = 0

CCSDS_OMM_VERS = 2.0
CREATION_DATE  = 
ORIGINATOR     = 

OBJECT_NAME    = SL-16 R/B
OBJECT_ID      = 1992-076B
CENTER_NAME    = EARTH
REF_FRAME      = TEME
TIME_SYSTEM    = UTC
MEAN_ELEMENT_THEORY = SGP/SGP4

EPOCH          = 2026-02-13T23:52:24.888864
MEAN_MOTION    = 14.16855597
ECCENTRICITY   = .00112489
INCLINATION    = 70.9977
RA_OF_ASC_NODE = 238.2865
ARG_OF_PERICENTER = 139.1653
MEAN_ANOMALY   = 22.4420

EPHEMERIS_TYPE = 0
CLASSIFICATION_TYPE = U
NORAD_CAT_ID   = 22220
ELEMENT_SET_NO = 999
REV_AT_EPOCH   = 71847
BSTAR          = -.59967315E-4
MEAN_MOTION_DOT = -.168E-5
MEAN_MOTION_DDOT = 0

CCSDS_OMM_VERS = 2.0
CREATION_DATE  = 
ORIGINATOR     = 

OBJECT_NAME    = COSMOS 2221
OBJECT_ID      = 1992-080A
CENTER_NAME    = EARTH
REF_FRAME      = TEME
TIME_SYSTEM    = UTC
MEAN_ELEMENT_THEORY = SGP/SGP4

EPOCH          = 2026-02-14T05:30:18.768960
MEAN_MOTION    = 14.96108146
ECCENTRICITY   = .00127439
INCLINATION    = 82.5053
RA_OF_ASC_NODE = 301.5507
ARG_OF_PERICENTER = 273.0165
MEAN_ANOMALY   = 86.9598

EPHEMERIS_TYPE = 0
CLASSIFICATION_TYPE = U
NORAD_CAT_ID   = 22236
ELEMENT_SET_NO = 999
REV_AT_EPOCH   = 77728
BSTAR          = .17209912E-3
MEAN_MOTION_DOT = .1963E-4
MEAN_MOTION_DDOT = 0

CCSDS_OMM_VERS = 2.0
CREATION_DATE  = 
ORIGINATOR     = 

OBJECT_NAME    = SL-16 R/B
OBJECT_ID      = 1992-093B
CENTER_NAME    = EARTH
REF_FRAME      = TEME
TIME_SYSTEM    = UTC
MEAN_ELEMENT_THEORY = SGP/SGP4

EPOCH          = 2026-02-14T06:38:53.554272
MEAN_MOTION    = 14.15442383
ECCENTRICITY   = .00053355
INCLINATION    = 71.0202
RA_OF_ASC_NODE = 53.4156
ARG_OF_PERICENTER = 318.9162
MEAN_ANOMALY   = 41.1559

EPHEMERIS_TYPE = 0
CLASSIFICATION_TYPE = U
NORAD_CAT_ID   = 22285
ELEMENT_SET_NO = 999
REV_AT_EPOCH   = 70984
BSTAR          = .14743036E-3
MEAN_MOTION_DOT = .24E-5
MEAN_MOTION_DDOT = 0

CCSDS_OMM_VERS = 2.0
CREATION_DATE  = 
ORIGINATOR     = 

OBJECT_NAME    = COSMOS 2228
OBJECT_ID      = 1992-094A
CENTER_NAME    = EARTH
REF_FRAME      = TEME
TIME_SYSTEM    = UTC
MEAN_ELEMENT_THEORY = SGP/SGP4

EPOCH          = 2026-02-14T06:15:59.298336
MEAN_MOTION    = 14.97079511
ECCENTRICITY   = .00186748
INCLINATION    = 82.5150
RA_OF_ASC_NODE = 259.7462
ARG_OF_PERICENTER = 24.9785
MEAN_ANOMALY   = 335.2337

EPHEMERIS_TYPE = 0
CLASSIFICATION_TYPE = U
NORAD_CAT_ID   = 22286
ELEMENT_SET_NO = 999
REV_AT_EPOCH   = 77255
BSTAR          = .18115678E-3
MEAN_MOTION_DOT = .2121E-4
MEAN_MOTION_DDOT = 0

